SILVERSAT               
1 66909U 98067XV  26039.50440908  .00131377  00000+0  14018-2 0  9997
2 66909  51.6265 213.2711 0002436 240.0519 120.0233 15.63003345 10619
ISS OBJECT XW           
1 66910U 98067XW  26038.75165351  .00124600  00000+0  14148-2 0  9996
2 66910  51.6262 217.2388 0000983 258.5946 101.4937 15.61429611 10491
ISS OBJECT XX           
1 66911U 98067XX  26038.70806818  .00165665  00000+0  16909-2 0  9995
2 66911  51.6247 216.9470 0002516 264.5889  95.4819 15.64004478 10483
ISS OBJECT XY           
1 66912U 98067XY  26038.74848449  .00088919  00000+0  11315-2 0  9998
2 66912  51.6283 217.9746 0001112 162.5092 197.5939 15.58603065 10471
ISS OBJECT XZ           
1 67683U 98067XZ  26039.59715344  .00032870  00000+0  59125-3 0  9992
2 67683  51.6305 216.1384 0011082  92.8553 267.3704 15.49468452   277
ISS OBJECT YA           
1 67684U 98067YA  26039.59619447  .00056802  00000+0  99586-3 0  9996
2 67684  51.6304 216.1337 0013033  88.0048 272.2433 15.49919384   278
LEOPARD                 
1 67685U 98067YB  26039.59692941  .00037004  00000+0  66149-3 0  9999
2 67685  51.6307 216.1372 0013014  88.2498 271.9981 15.49560692   279
ISS OBJECT YC           
1 67686U 98067YC  26039.53231368  .00041281  00000+0  73612-3 0  9991
2 67686  51.6313 216.4571 0007856  65.5031 294.6776 15.49638146   262
CORAL                   
1 67687U 98067YD  26039.59702131  .00034556  00000+0  62045-3 0  9994
2 67687  51.6310 216.1383 0007957  67.3448 292.8382 15.49526264   194
GXIBA-1                 
1 67688U 98067YE  26039.59682245  .00039429  00000+0  70417-3 0  9994
2 67688  51.6312 216.1363 0007823  66.6258 293.5553 15.49615844   199
