CCSDS_OMM_VERS = 2.0
CREATION_DATE  = 
ORIGINATOR     = 

OBJECT_NAME    = SILVERSAT
OBJECT_ID      = 1998-067XV
CENTER_NAME    = EARTH
REF_FRAME      = TEME
TIME_SYSTEM    = UTC
MEAN_ELEMENT_THEORY = SGP/SGP4

EPOCH          = 2026-02-08T12:06:20.944512
MEAN_MOTION    = 15.63003345
ECCENTRICITY   = .00024367
INCLINATION    = 51.6265
RA_OF_ASC_NODE = 213.2711
ARG_OF_PERICENTER = 240.0519
MEAN_ANOMALY   = 120.0233

EPHEMERIS_TYPE = 0
CLASSIFICATION_TYPE = U
NORAD_CAT_ID   = 66909
ELEMENT_SET_NO = 999
REV_AT_EPOCH   = 1061
BSTAR          = .1401769E-2
MEAN_MOTION_DOT = .131377E-2
MEAN_MOTION_DDOT = 0

CCSDS_OMM_VERS = 2.0
CREATION_DATE  = 
ORIGINATOR     = 

OBJECT_NAME    = ISS OBJECT XW
OBJECT_ID      = 1998-067XW
CENTER_NAME    = EARTH
REF_FRAME      = TEME
TIME_SYSTEM    = UTC
MEAN_ELEMENT_THEORY = SGP/SGP4

EPOCH          = 2026-02-07T18:02:22.863264
MEAN_MOTION    = 15.61429611
ECCENTRICITY   = .00009834
INCLINATION    = 51.6262
RA_OF_ASC_NODE = 217.2388
ARG_OF_PERICENTER = 258.5946
MEAN_ANOMALY   = 101.4937

EPHEMERIS_TYPE = 0
CLASSIFICATION_TYPE = U
NORAD_CAT_ID   = 66910
ELEMENT_SET_NO = 999
REV_AT_EPOCH   = 1049
BSTAR          = .1414812E-2
MEAN_MOTION_DOT = .1246E-2
MEAN_MOTION_DDOT = 0

CCSDS_OMM_VERS = 2.0
CREATION_DATE  = 
ORIGINATOR     = 

OBJECT_NAME    = ISS OBJECT XX
OBJECT_ID      = 1998-067XX
CENTER_NAME    = EARTH
REF_FRAME      = TEME
TIME_SYSTEM    = UTC
MEAN_ELEMENT_THEORY = SGP/SGP4

EPOCH          = 2026-02-07T16:59:37.090752
MEAN_MOTION    = 15.64004478
ECCENTRICITY   = .00025167
INCLINATION    = 51.6247
RA_OF_ASC_NODE = 216.9470
ARG_OF_PERICENTER = 264.5889
MEAN_ANOMALY   = 95.4819

EPHEMERIS_TYPE = 0
CLASSIFICATION_TYPE = U
NORAD_CAT_ID   = 66911
ELEMENT_SET_NO = 999
REV_AT_EPOCH   = 1048
BSTAR          = .16908932E-2
MEAN_MOTION_DOT = .165665E-2
MEAN_MOTION_DDOT = 0

CCSDS_OMM_VERS = 2.0
CREATION_DATE  = 
ORIGINATOR     = 

OBJECT_NAME    = ISS OBJECT XY
OBJECT_ID      = 1998-067XY
CENTER_NAME    = EARTH
REF_FRAME      = TEME
TIME_SYSTEM    = UTC
MEAN_ELEMENT_THEORY = SGP/SGP4

EPOCH          = 2026-02-07T17:57:49.059936
MEAN_MOTION    = 15.58603065
ECCENTRICITY   = .00011122
INCLINATION    = 51.6283
RA_OF_ASC_NODE = 217.9746
ARG_OF_PERICENTER = 162.5092
MEAN_ANOMALY   = 197.5939

EPHEMERIS_TYPE = 0
CLASSIFICATION_TYPE = U
NORAD_CAT_ID   = 66912
ELEMENT_SET_NO = 999
REV_AT_EPOCH   = 1047
BSTAR          = .11314625E-2
MEAN_MOTION_DOT = .88919E-3
MEAN_MOTION_DDOT = 0

CCSDS_OMM_VERS = 2.0
CREATION_DATE  = 
ORIGINATOR     = 

OBJECT_NAME    = ISS OBJECT XZ
OBJECT_ID      = 1998-067XZ
CENTER_NAME    = EARTH
REF_FRAME      = TEME
TIME_SYSTEM    = UTC
MEAN_ELEMENT_THEORY = SGP/SGP4

EPOCH          = 2026-02-08T14:19:54.057216
MEAN_MOTION    = 15.49468452
ECCENTRICITY   = .00110823
INCLINATION    = 51.6305
RA_OF_ASC_NODE = 216.1384
ARG_OF_PERICENTER = 92.8553
MEAN_ANOMALY   = 267.3704

EPHEMERIS_TYPE = 0
CLASSIFICATION_TYPE = U
NORAD_CAT_ID   = 67683
ELEMENT_SET_NO = 999
REV_AT_EPOCH   = 27
BSTAR          = .59125196E-3
MEAN_MOTION_DOT = .3287E-3
MEAN_MOTION_DDOT = 0

CCSDS_OMM_VERS = 2.0
CREATION_DATE  = 
ORIGINATOR     = 

OBJECT_NAME    = ISS OBJECT YA
OBJECT_ID      = 1998-067YA
CENTER_NAME    = EARTH
REF_FRAME      = TEME
TIME_SYSTEM    = UTC
MEAN_ELEMENT_THEORY = SGP/SGP4

EPOCH          = 2026-02-08T14:18:31.202208
MEAN_MOTION    = 15.49919384
ECCENTRICITY   = .0013033
INCLINATION    = 51.6304
RA_OF_ASC_NODE = 216.1337
ARG_OF_PERICENTER = 88.0048
MEAN_ANOMALY   = 272.2433

EPHEMERIS_TYPE = 0
CLASSIFICATION_TYPE = U
NORAD_CAT_ID   = 67684
ELEMENT_SET_NO = 999
REV_AT_EPOCH   = 27
BSTAR          = .99586353E-3
MEAN_MOTION_DOT = .56802E-3
MEAN_MOTION_DDOT = 0

CCSDS_OMM_VERS = 2.0
CREATION_DATE  = 
ORIGINATOR     = 

OBJECT_NAME    = LEOPARD
OBJECT_ID      = 1998-067YB
CENTER_NAME    = EARTH
REF_FRAME      = TEME
TIME_SYSTEM    = UTC
MEAN_ELEMENT_THEORY = SGP/SGP4

EPOCH          = 2026-02-08T14:19:34.701024
MEAN_MOTION    = 15.49560692
ECCENTRICITY   = .00130149
INCLINATION    = 51.6307
RA_OF_ASC_NODE = 216.1372
ARG_OF_PERICENTER = 88.2498
MEAN_ANOMALY   = 271.9981

EPHEMERIS_TYPE = 0
CLASSIFICATION_TYPE = U
NORAD_CAT_ID   = 67685
ELEMENT_SET_NO = 999
REV_AT_EPOCH   = 27
BSTAR          = .66149115E-3
MEAN_MOTION_DOT = .37004E-3
MEAN_MOTION_DDOT = 0

CCSDS_OMM_VERS = 2.0
CREATION_DATE  = 
ORIGINATOR     = 

OBJECT_NAME    = ISS OBJECT YC
OBJECT_ID      = 1998-067YC
CENTER_NAME    = EARTH
REF_FRAME      = TEME
TIME_SYSTEM    = UTC
MEAN_ELEMENT_THEORY = SGP/SGP4

EPOCH          = 2026-02-08T12:46:31.901952
MEAN_MOTION    = 15.49638146
ECCENTRICITY   = .00078565
INCLINATION    = 51.6313
RA_OF_ASC_NODE = 216.4571
ARG_OF_PERICENTER = 65.5031
MEAN_ANOMALY   = 294.6776

EPHEMERIS_TYPE = 0
CLASSIFICATION_TYPE = U
NORAD_CAT_ID   = 67686
ELEMENT_SET_NO = 999
REV_AT_EPOCH   = 26
BSTAR          = .73611855E-3
MEAN_MOTION_DOT = .41281E-3
MEAN_MOTION_DDOT = 0

CCSDS_OMM_VERS = 2.0
CREATION_DATE  = 
ORIGINATOR     = 

OBJECT_NAME    = CORAL
OBJECT_ID      = 1998-067YD
CENTER_NAME    = EARTH
REF_FRAME      = TEME
TIME_SYSTEM    = UTC
MEAN_ELEMENT_THEORY = SGP/SGP4

EPOCH          = 2026-02-08T14:19:42.641184
MEAN_MOTION    = 15.49526264
ECCENTRICITY   = .00079573
INCLINATION    = 51.6310
RA_OF_ASC_NODE = 216.1383
ARG_OF_PERICENTER = 67.3448
MEAN_ANOMALY   = 292.8382

EPHEMERIS_TYPE = 0
CLASSIFICATION_TYPE = U
NORAD_CAT_ID   = 67687
ELEMENT_SET_NO = 999
REV_AT_EPOCH   = 19
BSTAR          = .62045309E-3
MEAN_MOTION_DOT = .34556E-3
MEAN_MOTION_DDOT = 0

CCSDS_OMM_VERS = 2.0
CREATION_DATE  = 
ORIGINATOR     = 

OBJECT_NAME    = GXIBA-1
OBJECT_ID      = 1998-067YE
CENTER_NAME    = EARTH
REF_FRAME      = TEME
TIME_SYSTEM    = UTC
MEAN_ELEMENT_THEORY = SGP/SGP4

EPOCH          = 2026-02-08T14:19:25.459680
MEAN_MOTION    = 15.49615844
ECCENTRICITY   = .00078236
INCLINATION    = 51.6312
RA_OF_ASC_NODE = 216.1363
ARG_OF_PERICENTER = 66.6258
MEAN_ANOMALY   = 293.5553

EPHEMERIS_TYPE = 0
CLASSIFICATION_TYPE = U
NORAD_CAT_ID   = 67688
ELEMENT_SET_NO = 999
REV_AT_EPOCH   = 19
BSTAR          = .70416948E-3
MEAN_MOTION_DOT = .39429E-3
MEAN_MOTION_DDOT = 0

